LEMUR-2-ARIANNA         
1 62699U 25009CU  26159.16659560  .00007360  00000+0  56078-3 0  9993
2 62699  97.6881 240.6226 0003208 143.4513 216.6931 15.02348675 76203
LEMUR-2-ALISIA          
1 62706U 25009DB  26159.21282253  .00006971  00000+0  52736-3 0  9993
2 62706  97.6965 241.4438 0000925 188.9782 171.1426 15.02641592 98813
LEMUR-2-ROUNDTRIPPER    
1 62711U 25009DG  26159.17693961  .00008193  00000+0  60279-3 0  9995
2 62711  97.7243 241.8695 0004331 160.9148 199.2240 15.03638916 76277
LEMUR-2-MYNAMEISJEFF    
1 62712U 25009DH  26159.17541564  .00008018  00000+0  58984-3 0  9993
2 62712  97.7290 242.2435 0002611 188.9258 171.1921 15.03654372 76277
LEMUR-2-LEIA-PHILIP     
1 63246U 25052AN  26159.18156008  .00002208  00000+0  19544-3 0  9994
2 63246  97.6847  51.2835 0002054 249.4491 110.6511 14.97291118 67328
LEMUR-2-LIA-MARTIN      
1 63248U 25052AQ  26159.18939378  .00005194  00000+0  44780-3 0  9992
2 63248  97.6908  51.7525 0002311 172.4461 187.6796 14.97729261 67332
LEMUR-2-DELOITTE-1      
1 63259U 25052BB  26159.23139115  .00003700  00000+0  32207-3 0  9993
2 63259  97.6919  52.1231 0002447 115.0194 245.1283 14.97534980 67356
LEMUR-2-EMERSONROSE     
1 63261U 25052BD  26159.21540691  .00003172  00000+0  26647-3 0  9993
2 63261  97.6905  52.6491 0002471  71.0664 289.0826 14.99020138 67398
LEMUR-2-MARACHE-FRAN    
1 63262U 25052BE  26158.66309041  .00007107  00000+0  57581-3 0  9997
2 63262  97.6945  52.3995 0006230  53.6661 306.5137 15.00001972 67331
LEMUR-2-THEFALCONER     
1 63264U 25052BG  26158.45461392  .00005213  00000+0  45412-3 0  9990
2 63264  97.6876  50.9885 0003592  61.6588 298.4996 14.97324847 67238
LEMUR-2-UNTITLED-SC     
1 63351U 25061A   26159.16299703  .00003416  00000+0  19441-3 0  9997
2 63351  97.5632 134.5910 0017141 299.0915  60.8600 15.13409013 66227
LEMUR-2-ESPERANZA       
1 63352U 25061B   26159.20680409  .00003884  00000+0  21998-3 0  9999
2 63352  97.5640 134.7261 0016759 298.3446  61.6095 15.13504244 66233
LEMUR-2-KREMPEL-BRO2    
1 63353U 25061C   26159.17026564  .00003406  00000+0  19103-3 0  9997
2 63353  97.5686 135.2115 0017532 290.0165  69.9179 15.13937260 66248
LEMUR-2-THERMORAPTOR    
1 63354U 25061D   26158.49188932  .00004804  00000+0  26729-3 0  9995
2 63354  97.5692 134.6110 0017307 291.4891  68.4494 15.14011469 66143
LEMUR-2-NEUROSPICY      
1 63355U 25061E   26158.92690185  .00004420  00000+0  24564-3 0  9991
2 63355  97.5618 134.6770 0015076 294.2338  65.7317 15.14130797 66210
LEMUR-2-TILLINFINITY    
1 63356U 25061F   26158.89968035  .00004285  00000+0  23430-3 0  9990
2 63356  97.5604 134.9339 0016239 280.9054  79.0350 15.14716168 66238
LEMUR-2-KREMPEL-BRO1    
1 63357U 25061G   26159.20230627  .00003938  00000+0  21672-3 0  9996
2 63357  97.5606 135.1535 0016903 281.0590  78.8741 15.14523472 66276
LEMUR-2-LANGER2SPACE    
1 63358U 25061H   26158.89660512  .00004346  00000+0  24102-3 0  9996
2 63358  97.5610 134.6671 0014994 292.4182  67.5461 15.14218500 66219
LEMUR-2-BALTO           
1 63395U 25052BH  26159.18132742  .00005278  00000+0  42905-3 0  9995
2 63395  97.6879  52.8969 0006638  80.5057 279.6917 14.99988078 67413
LEMUR-2-KRISH           
1 64561U 25135AK  26159.31320271  .00004498  00000+0  40487-3 0  9990
2 64561  97.7724 274.2526 0001209 107.4283 252.7071 14.96121854 52591
LEMUR-2-HUBBLE-4        
1 64565U 25135AP  26159.22373483  .00001376  00000+0  13726-3 0  9995
2 64565  97.7689 273.2393 0001633 357.8755   2.2457 14.93172589 52530
LEMUR-2-SEJONG-2        
1 64586U 25135BL  26159.21242823  .00004610  00000+0  40942-3 0  9994
2 64586  97.7684 274.2962 0004572  19.2476 340.8917 14.96629855 52601
LEMUR-2-HUBBLE-5        
1 64840U 25135BT  26159.31737371  .00001729  00000+0  16709-3 0  9997
2 64840  97.7709 273.9510 0005796  23.1887 336.9593 14.94107856 52589
LEMUR-2-KARENDARRELL    
1 64841U 25135BU  26159.31297266  .00006608  00000+0  53582-3 0  9993
2 64841  97.7668 275.5377 0009124 236.7119 123.3231 14.99981807 52681
LEMUR-2-LUCILLE-ROSE    
1 65403U 25135BV  26159.22029903  .00006280  00000+0  50859-3 0  9999
2 65403  97.7770 275.4534 0010679 318.0498  41.9906 15.00039695 47292
LEMUR-2-AFFIE-WAUWIE    
1 66295U 25248C   26158.30799735  .00013749  00000+0  52119-3 0  9998
2 66295  45.3866 168.5000 0008835  20.2835 339.8404 15.26866519 33080
LEMUR-2-DEANANDMAEVE    
1 66678U 25276N   26159.16217609  .00006038  00000+0  28646-3 0  9995
2 66678  97.4208 232.7884 0006515  43.4087 316.7660 15.19620066 29042
LEMUR-2-STAS-GORBUK     
1 66686U 25276W   26159.17463609  .00005018  00000+0  24098-3 0  9992
2 66686  97.4244 232.8563 0006012  43.8432 316.3278 15.19284214 29048
LEMUR-2-TEODOR          
1 66768U 25276DG  26159.16828590  .00005354  00000+0  24488-3 0  9992
2 66768  97.4147 233.0751 0001831 123.5597 236.5814 15.20951389 29073
